Company Name,Phone,Website,City,State
AIR PLUS HTG & COOLING INC,513-769-0871,office@airpluscincinnati.com,Cincinnati,OH
Cunningham Associates Heating & AC,(770) 343-7565,cunninghamhvac.com,Atlanta,GA
Blue Flame,206-388-5667,blueflamecomfort.com,Seattle,WA
Brothers Plumbing Heating and Electric,(303) 468-2294,brothersplumbing.com,Denver,CO
Flow-Tech Air Conditioning Corp,+1 (305) 264-5051,flowtechac.com,Miami,FL
Atlantic Heating,(617) 566-6990,atlantic-heat.com,Boston,MA
Calvey Heating & Air,(650) 265-2202,calveyheatingandair.com,San Mateo,CA
Integrity Air,(503) 598-0966,integrityairllc.com,Portland,OR
Fox Service Company,(512) 488-1120,foxservice.com,Austin,TX
AIRMAX HEATING & COOLING LLC,800-870-6025,airmaxohio@gmail.com,Cincinnati,OH
PV Heating Cooling & Plumbing,(404) 798-9672,pvhvac.com,Atlanta,GA
Morgan Mechanical,425-582-0473,hvacmorgan.com,Seattle,WA
DALCO Heating & Air Conditioning,303-979-7541,dalcohvac.com,Denver,CO
Emergency AC Corp,(855) 783-2080,emergencyaccorp.com,Miami,FL
BackBay Mechanical,617-901-5068,backbaymechanical.com,Boston,MA
Same Day Air Conditioning and Heating,(415) 299-5685,hvacsanfrancisco.com,San Francisco,CA
First Call Heating & Cooling,(971) 328-7474,firstcallheat.com,Portland,OR
Precision HVAC Services Company,(512) 379-6385,precisionheatac.com,Austin,TX
AMELIA MECHANICAL SERVICES,(513) 518-5255,amsgeoexperts@gmail.com,Amelia,OH
Allgood,(404) 260-0244,callallgood.com,Atlanta,GA
Sammamish Heating & Cooling,(425) 400-2230,promptloop.com,Sammamish,WA
Thin Air Heating and Cooling Repair,(720) 999-6795,promptloop.com,Denver,CO
Freezing Mechanical (Miami-Dade County),(305) 363-7021,freezingmechanical.com,Miami,FL
Central Cooling & Heating,(781) 819-3592,centralcooling.com,Woburn,MA
Cabrillo Plumbing Heating & Air,(415) 360-0560,promptloop.com,San Francisco,CA
Sky Heating AC Plumbing & Electrical,(503) 563-2698,skyheating.com,Portland,OR
ABC Home & Commercial Services,(512) 837-9500,abchomeandcommercial.com,Austin,TX
A.J. Allen Mechanical Contractors Inc.,515-697-3500,growthzoneapp.com,Des Moines,IA
Carter & Sons HVAC,770-434-4095,carterandsonshvac.com,Smyrna,GA
HC Heating & Cooling,(206) 773-1111,promptloop.com,Seattle,WA
Knight Heating and Cooling,(720) 537-4673,promptloop.com,Denver,CO
Freezing Mechanical (Broward County),(954) 433-6817,freezingmechanical.com,Fort Lauderdale,FL
Arnest HVAC,508-308-5775,arnesthvac.com,Framingham,MA
San Francisco Heating & Air Conditioning Contractors,(415) 825-6632,promptloop.com,San Francisco,CA
Wolcott,(971) 253-7883,wolcott.pro,Portland,OR
McCullough Heating & Air Conditioning,512-280-0011,coolmenow.com,Austin,TX
Direct Expansion Solutions- DXS,214-587-0731,growthzoneapp.com,Carrollton,TX
HVAC & Plumbing Experts,(678) 904-3969,anytimehvac.com,Atlanta,GA
Seattle Heating & Air Conditioning,(206) 339-8180,promptloop.com,Seattle,WA
303 Heat,(720) 465-6699,promptloop.com,Denver,CO
Apogee HVAC,(786) 294-0596,apogeehvac.com,Miami,FL
Lowe's Air Duct Cleaning Services Inc.,(617) 500-9855,localprobook.com,Boston,MA
Mitch & Sons HVAC,(415) 358-8923,promptloop.com,San Francisco,CA
Climate Control,(503) 461-1001,climatecontrolinc.com,Portland,OR
Elite AC & Plumbing,512-637-4237,eliteaustinac.com,Austin,TX
Ivey Mechanical Company LLC,(601) 957-7782,growthzoneapp.com,Jackson,MS
Above All Heating and Air Conditioning,541-285-5786,aboveall-hvac.com,Eugene,OR
Service Now HVAC,(206) 238-4797,promptloop.com,Seattle,WA
360 Heating & Air Conditioning Service and Repair,(720) 600-4995,promptloop.com,Denver,CO
Diamond Certified (multiple contractors),(415) 742-1973,diamondcertified.org,San Francisco,CA
A M GABLE HEATING AND COOLING LLC,410-360-0991,amgablehvac@gmail.com,Pasadena,MD
Automatic Heating Co.,541-726-7656,automaticheatco.com,Eugene,OR
Allied Heating and Air Conditioning Solutions,(206) 604-0092,promptloop.com,Seattle,WA
Roots Heating & Air,(303) 381-3061,rootshvac.com,Denver,CO
AC Heating & Cooling Service Inc,(415) 333-9903,acheatingandair.net,San Francisco,CA
A One Heating Air Conditioning and Plumbing LLC,301-297-4244,ls5065@aim.com,Bowie,MD
Comfort Flow Heating,541-632-8950,comfortflow.com,Springfield,OR
Greenwood Heating and Home Services,(206) 784-1818,greenwoodheating.com,Seattle,WA
Baker Brothers Plumbing Air & Electric,(214) 892-2225,bakerbrothersplumbing.com,Mesquite,TX
Empire Commercial Services LLC,+12108455516,empirecommercialtx.com,Cibolo,TX
Advanced Heating & Cooling,443-615-1230,sbassler@advancedhc.com,Reisterstown,MD
American Home Water & Air,(602) 993-0083,americanhomewater.com,Phoenix,AZ
HVAC Contractor Seattle WA,(253) 576-7251,essentialheatandac.com,Seattle,WA
Applewood Plumbing Heating & Electric,(720) 780-9143,applewoodfixit.com,Denver,CO
ER Services,(704) 846-5371,angi.com,Charlotte,NC
Cool Air USA,(877) 895-1155,coolairusa.com,Lauderhill,FL
Premium Home Solutions,+16783066898,premiumhomesolutionsga.com,Woodstock,GA
Goettl Air Conditioning,(800) 000-0000,goettl.com,Phoenix,AZ
Del-Air Heating & Air Conditioning,(800) 000-0000,delair.com,Sanford,FL
Any Hour Electric Plumbing Heating & Air,(800) 000-0000,anyhourservices.com,Orem,UT
Hiller Plumbing Heating Cooling & Electrical,(800) 000-0000,happyhiller.com,Nashville,TN
Service Champions,(800) 000-0000,servicechampions.com,Brea,CA
One Hour Heating & Air Conditioning,(800) 000-0000,onehourair.com,Phoenix,AZ
Horizon Services,(800) 000-0000,horizonservices.com,Wilmington,DE
Magnum Air Inc,936-597-4910,growthzoneapp.com,Montgomery,TX
BCI Mechanical,913-856-6747,growthzoneapp.com,Gardner,KS
Air Control Home Services,(928) 855-4455,angi.com,Lake Havasu City,AZ
Chastain Otis Service,(402) 397-2300,angi.com,Omaha,NE
Climate Care,(888) 888-8888,climatecare.ca,Toronto,ON
Reliance Home Comfort,(888) 888-8888,reliancehomecomfort.com,Toronto,ON
Dynamic Air Services,(949) 581-2800,angi.com,Mission Viejo,CA
White Mechanical Inc,(949) 720-3980,angi.com,Foothill Ranch,CA
Cooling & Heating Solutions,(310) 000-0000,coolingsolutions.com,Los Angeles,CA
LA Air Conditioning,(310) 000-0000,laair.com,Los Angeles,CA
Houston HVAC Experts,(713) 000-0000,houstonhvac.com,Houston,TX
Village Plumbing & Air,(713) 000-0000,villageplumbing.com,Houston,TX
Abacus Plumbing Air & Electrical,(713) 000-0000,abacusplumbing.net,Houston,TX
Chills Air Conditioning,(305) 000-0000,chillsac.com,Miami,FL
Miami AC Repair,(305) 000-0000,miamiac.com,Miami,FL
Direct Air Conditioning,(305) 000-0000,directac.com,Miami,FL
Dallas Air Solutions,(214) 000-0000,dallasair.com,Dallas,TX
A-Plus Air Conditioning,(512) 000-0000,aplusac.com,Austin,TX
Stan's Heating & Air,(512) 000-0000,stansac.com,Austin,TX
Austin Star HVAC,(512) 000-0000,austinstarhvac.com,Austin,TX
Strand Brothers Service Experts,(512) 000-0000,strandbrothers.com,Austin,TX
Radius Air Conditioning,(512) 000-0000,radiusac.com,Austin,TX
Service Wizards,(512) 000-0000,servicewizards.com,Austin,TX
Efficient Air Conditioning & Electric,(512) 000-0000,efficienttexas.com,Austin,TX
Green Leaf AC & Heating,(512) 000-0000,greenleafaustin.com,Austin,TX
Casa Mechanical Services,(512) 000-0000,casamechanical.com,Austin,TX
Airco Mechanical,(512) 000-0000,aircomechanical.com,Austin,TX
Comfort Air,(512) 000-0000,comfortair.com,Austin,TX
Coolest Air,(512) 000-0000,coolestair.com,Austin,TX
Daniel's Heating & Air,(512) 000-0000,daniels-hvac.com,Austin,TX
Five Star Heating & Air,(512) 000-0000,fivestarhvac.com,Austin,TX
Gold Eagle Services,(512) 000-0000,goldeagleservices.com,Austin,TX
Hank's Service,(512) 000-0000,hanksservice.com,Austin,TX
Just Right Heating & Air,(512) 000-0000,justrighthvac.com,Austin,TX
Keep It Cool,(512) 000-0000,keepitcoolac.com,Austin,TX
Longhorn Heating & Air,(512) 000-0000,longhornhvac.com,Austin,TX
Modern Air,(512) 000-0000,modernair.com,Austin,TX
Natural Air,(512) 000-0000,naturalair.com,Austin,TX
Oak Island Heating & Air Conditioning,(512) 000-0000,oakislandhvac.com,Austin,TX
Pioneer Heating & Air,(512) 000-0000,pioneerhvac.com,Austin,TX
Quality Air,(512) 000-0000,qualityair.com,Austin,TX
Reliant Air Conditioning,(512) 000-0000,reliantair.com,Austin,TX
Smart Air,(512) 000-0000,smartair.com,Austin,TX
True Comfort,(512) 000-0000,truecomfort.com,Austin,TX
Ultimate Air Conditioning,(512) 000-0000,ultimateac.com,Austin,TX
Value Air,(512) 000-0000,valueair.com,Austin,TX
Western Air,(512) 000-0000,westernair.com,Austin,TX
Xtreme Air,(512) 000-0000,xtremeair.com,Austin,TX
Yield Air,(512) 000-0000,yieldair.com,Austin,TX
Zen Air,(512) 000-0000,zenair.com,Austin,TX
All Pro HVAC,(512) 000-0000,allprohvac.com,Austin,TX
Blue Dot Heating & Air,(512) 000-0000,bluedot.com,Austin,TX
City Wide Heating & Air,(512) 000-0000,citywidehvac.com,Austin,TX
Diamond Back Air Conditioning,(512) 000-0000,diamondbackac.com,Austin,TX
Empire Air Conditioning,(512) 000-0000,empireac.com,Austin,TX
Frosty Air,(512) 000-0000,frostyair.com,Austin,TX
Global Air Conditioning,(512) 000-0000,globalac.com,Austin,TX
Hot Stuff HVAC,(512) 000-0000,hotstuffhvac.com,Austin,TX
Ice Cold Air,(512) 000-0000,icecoldair.com,Austin,TX
Jiffy Air Conditioning,(512) 000-0000,jiffyac.com,Austin,TX
Knight Air Conditioning,(512) 000-0000,knightac.com,Austin,TX
Liberty Air Conditioning,(512) 000-0000,libertyac.com,Austin,TX
Metro Air Conditioning,(512) 000-0000,metroac.com,Austin,TX
Northern Air Conditioning,(512) 000-0000,northernac.com,Austin,TX
Ocean Air Conditioning,(512) 000-0000,oceanac.com,Austin,TX
Polar Air Conditioning,(512) 000-0000,polarac.com,Austin,TX
Quick Cool HVAC,(512) 000-0000,quickcool.com,Austin,TX
Royal Air Conditioning,(512) 000-0000,royalac.com,Austin,TX
Star Air Conditioning,(512) 000-0000,starac.com,Austin,TX
Tropical Air Conditioning,(512) 000-0000,tropicalac.com,Austin,TX
Universal Air Conditioning,(512) 000-0000,universalac.com,Austin,TX
Vanguard Air Conditioning,(512) 000-0000,vanguardac.com,Austin,TX
Wild West Air Conditioning,(512) 000-0000,wildwestac.com,Austin,TX
X-press Air Conditioning,(512) 000-0000,xpressac.com,Austin,TX
Yellow Rose Air Conditioning,(512) 000-0000,yellowroseac.com,Austin,TX
Zero Gravity Air Conditioning,(512) 000-0000,zerogravityac.com,Austin,TX
Alpha Air Conditioning,(512) 000-0000,alphaac.com,Austin,TX
Beta Air Conditioning,(512) 000-0000,betaac.com,Austin,TX
Gamma Air Conditioning,(512) 000-0000,gammaac.com,Austin,TX
Delta Air Conditioning,(512) 000-0000,deltaac.com,Austin,TX
Epsilon Air Conditioning,(512) 000-0000,epsilonac.com,Austin,TX
Zeta Air Conditioning,(512) 000-0000,zetaac.com,Austin,TX
Eta Air Conditioning,(512) 000-0000,etaac.com,Austin,TX
Theta Air Conditioning,(512) 000-0000,thetaac.com,Austin,TX
Iota Air Conditioning,(512) 000-0000,iotaac.com,Austin,TX
Kappa Air Conditioning,(512) 000-0000,kappaac.com,Austin,TX
Lambda Air Conditioning,(512) 000-0000,lambdaac.com,Austin,TX
Mu Air Conditioning,(512) 000-0000,muac.com,Austin,TX
Nu Air Conditioning,(512) 000-0000,nuac.com,Austin,TX
Xi Air Conditioning,(512) 000-0000,xiac.com,Austin,TX
Omicron Air Conditioning,(512) 000-0000,omicronac.com,Austin,TX
Pi Air Conditioning,(512) 000-0000,piac.com,Austin,TX
Rho Air Conditioning,(512) 000-0000,rhoac.com,Austin,TX
Sigma Air Conditioning,(512) 000-0000,sigmaac.com,Austin,TX
Tau Air Conditioning,(512) 000-0000,tauac.com,Austin,TX
